#cP2014  2 10  0  0  0.00000000      96 ORBIT IGb08 HLM  IGS
## 1779  86400.00000000   900.00000000 56698 0.0000000000000
+   32   G01G02G03G04G05G06G07G08G09G10G11G12G13G14G15G16G17
+        G18G19G20G21G22G23G24G25G26G27G28G29G30G31G32  0  0
+          0  0  0  0  0  0  0  0  0  0  0  0  0  0  0  0  0
+          0  0  0  0  0  0  0  0  0  0  0  0  0  0  0  0  0
+          0  0  0  0  0  0  0  0  0  0  0  0  0  0  0  0  0
++         2  2  2  2  2  2  2  3  3  2  2  2  2  2  2  2  2
++         2  2  2  2  2  2  2  2  2  2  2  2  0  2  2  0  0
++         0  0  0  0  0  0  0  0  0  0  0  0  0  0  0  0  0
++         0  0  0  0  0  0  0  0  0  0  0  0  0  0  0  0  0
++         0  0  0  0  0  0  0  0  0  0  0  0  0  0  0  0  0
%c G  cc GPS ccc cccc cccc cccc cccc ccccc ccccc ccccc ccccc
%c cc cc ccc ccc cccc cccc cccc cccc ccccc ccccc ccccc ccccc
%f  1.2500000  1.025000000  0.00000000000  0.000000000000000
%f  0.0000000  0.000000000  0.00000000000  0.000000000000000
%i    0    0    0    0      0      0      0      0         0
%i    0    0    0    0      0      0      0      0         0
/* FINAL ORBIT COMBINATION FROM WEIGHTED AVERAGE OF:        
/* cod emr esa gfz grg jpl mit ngs                          
/* REFERENCED TO IGS TIME (IGST) AND TO WEIGHTED MEAN POLE: 
/* PCV:IGS08_1771 OL/AL:FES2004  NONE     Y  ORB:CMB CLK:CMB
*  2014  2 10 12 45  0.00000000
PG01  11623.506144  13416.921272 -19826.660916     -1.611249  8  8  7 125       
PG02  11694.290242 -14617.725079  18912.124354    477.832421  5  4  6 143       
PG03  -6290.032357  25565.821043  -3265.801553    323.931565  7  2  4 106       
PG04  24801.185300  -6452.319787   7133.929261      5.450881  6  7  7 104       
PG05   1911.047489 -20013.914168  17236.009170   -389.109494  7  3  6 117       
PG06 -13320.522675  22293.998605   4456.529985    270.238617  7  4  5 103       
PG07  23890.189299   6433.342758  10155.012335    312.353443  8  6  8 111       
PG08  26831.078167   1361.243721  -1123.558162     11.845505  9  6  8 115       
PG09  26457.759868  -2615.530876  -2314.217178    304.474307  9  5  6 100       
PG10  15961.577512  -2868.715880  20764.692266   -113.709879  6  6  5 117       
PG11   4040.601728  16516.048546 -20876.150687   -463.108160  7  4  5 100       
PG12 -11038.689098 -23986.479757  -3875.435628    185.582589  8  5  8 100       
PG13  12021.197270   8574.320883  21939.009924     31.039131  7  7  4 104       
PG14 -18682.096557   8885.775474 -16361.546145    199.440883  9  4  5 113       
PG15   1123.614741 -23350.704949 -12380.156273   -162.372311  8  6  4 127       
PG16  -2140.787113  19746.325280  17421.856021   -232.077533  6  6  5 120       
PG17  18441.827906 -10325.357091 -15691.424594    -67.049601  9  7  6 110       
PG18 -19416.496817 -13506.713333 -11976.340826    301.135711 10  6  5 112       
PG19  -4478.795299  22837.848375 -12503.173453   -437.970861  5  4  7 109       
PG20  14020.668308  22496.312800  -2402.822490    160.493204  8  4  5 102       
PG21 -24677.495375  -5769.314552   9337.420394   -343.193531  5  6  8 128       
PG22 -17984.996419   -928.115243 -19370.292380    212.485701  8  4    116       
PG23   4854.426170  18519.300797  18329.740951      5.153028  7  4  2 103       
PG24  -6149.875626 -14672.604288 -21290.331965    -23.077977  7  5  4 111       
PG25 -17875.956506 -18096.377670   7805.488058     13.858927  6  4  3 113       
PG26  12249.748632 -23187.305385  -3577.657405    169.120534  4  3  4 118       
PG27 -12437.627122  23443.200883    336.809045    -18.193880  7  5  4 112       
PG28  17325.693463   5657.156897 -18767.396710    331.447130  8  5  5 102       
PG29 -10552.502082 -11360.249034  21614.722203    509.899891  6  5  6 125       
PG30 -13626.865156   5867.827600  21884.942649 999999.999999
PG31 -22945.851771   7910.401432  11312.767402    333.120409  7  8  7 100       
PG32   3276.075984  24013.274768 -11399.679060   -488.000633  6  4  4 106       
*  2014  2 10 13  0  0.00000000
PG01   9318.096852  13665.487848 -20839.185348     -1.609315  8  7  7 116       
PG02  13755.743478 -14631.474973  17389.144561    477.834266  5  4  5 146       
PG03  -6654.202413  25617.973712   -458.590975    323.935275  7  2  4 105       
PG04  25517.835893  -6217.586727   4441.502349      5.451564  7  7  7 110       
PG05   3226.925024 -18397.497791  18782.540288   -389.108236  7  3  6 117       
PG06 -13370.726451  21551.683351   7194.086305    270.252070  7  4  5 107       
PG07  22619.689911   6662.018630  12606.129550    312.357081  7  6  8 116       
PG08  26806.523721   1463.780241   1766.705795     11.846351  8  6  8 109       
PG09  26511.802472  -2440.041553    573.849679    304.476967  9  6  5  95       
PG10  17221.205987   -827.753838  19975.221737   -113.712231  6  6  5 121       
PG11   1882.155204  17322.027258 -20497.170661   -463.111054  7  4  5  97       
PG12 -10587.723503 -23569.462056  -6684.894111    185.584675  8  5  8 106       
PG13  10674.359657  10706.327564  21686.144738     31.035889  8  7  4 111       
PG14 -17807.267650   7066.165096 -18120.079377    199.438072  9  5  5 113       
PG15   1908.642581 -24410.244560  -9973.198178   -162.374350  7  6  4 122       
PG16  -3327.928482  18010.077445  19068.303387   -232.076240  6  6  5 127       
PG17  17672.222504  -8524.342166 -17542.545376    -67.052677  9  7  6 120       
PG18 -19909.514655 -14732.215129  -9600.145049    301.137656  9  7  5 120       
PG19  -5343.684908  23818.044517 -10030.828524   -437.972984  5  3  7 104       
PG20  13500.649445  22377.226964  -5140.807799    160.496051  8  4  6 102       
PG21 -23582.943707  -6103.758462  11754.330565   -343.195169  6  7  8 131       
PG22 -19094.381507  -2822.868497 -18110.659048    212.487678  9  4    117       
PG23   3803.633112  20231.833237  16647.540686      5.150376  7  4  2 101       
PG24  -3705.130244 -14913.465059 -21677.600405    -23.079091  7  5  5 115       
PG25 -18132.656286 -18816.695695   5054.851651     13.860554  6  5  4 102       
PG26  12538.840340 -23215.401322   -686.113460    169.110544  4  3  4 109       
PG27 -12578.585010  23151.699124   3188.702538    -18.194977  6  5  4 105       
PG28  18331.810419   7567.942726 -17131.554131    331.449843  8  6  5 104       
PG29  -9345.661139 -13462.279959  20955.591891    509.902467  6  5  5 122       
PG30 -14992.477181   3765.154073  21472.355755 999999.999999
PG31 -24067.155997   7807.240354   8751.717430    333.120608  7  8  7 102       
PG32   2395.904047  22868.758287 -13676.942066   -487.994692  6  4  4  89       
*  2014  2 10 13 15  0.00000000
PG01   6934.461254  14046.785659 -21494.944739     -1.607330  8  7  7 112       
PG02  15633.048114 -14715.086912  15567.097931    477.836627  5  4  5 142       
PG03  -6943.528310  25377.408896   2356.540779    323.940182  7  1  5  79       
PG04  25939.497907  -5978.176279   1673.257002      5.451513  7  7  7   2       
PG05   4716.800165 -16725.101186  20003.259236   -389.106762  6  2  6 111       
PG06 -13359.129172  20524.851512   9805.046575    270.265488  6  4  5  85       
PG07  21101.068067   6990.143031  14844.587990    312.360937  7  6  8 113       
PG08  26466.687698   1572.297261   4627.721176     11.846422  8  6  8  99       
PG09  26252.604832  -2219.884259   3452.061627    304.480700  8  6  5  99       
PG10  18510.365950   1056.716984  18835.216218   -113.712886  6  6  5 107       
PG11   -189.142353  18193.297537 -19778.738874   -463.113870  7  4  4  89       
PG12  -9932.794708 -22926.211775  -9380.952526    185.586819  9  5  8  88       
PG13   9468.958141  12865.076991  21054.865487     31.032480  8  7  4  92       
PG14 -16948.414974   5038.621354 -19560.013901    199.434915  9  6  6 112       
PG15   2544.245102 -25241.686796  -7392.223277   -162.376400  7  6  5 118       
PG16  -4704.016664  16205.207398  20382.132921   -232.074946  5  6  5 117       
PG17  16916.587669  -6508.833197 -19083.452392    -67.055899  9  8  5 126       
PG18 -20290.005152 -15709.939477  -7058.732051    301.139518  9  7  5 106       
PG19  -6022.930294  24583.823773  -7382.529224   -437.975240  5  2  7  77       
PG20  12778.909767  22053.651036  -7791.070473    160.498544  8  3  6  80       
PG21 -22254.606635  -6524.117067  13979.683066   -343.197433  7  8  8 112       
PG22 -20190.600691  -4535.681821 -16536.108934    212.490096  9  5  2  98       
PG23   2919.109812  21806.632818  14676.115596      5.147405  6  3  1  78       
PG24  -1252.748972 -15283.752749 -21692.357890    -23.079310  7  6  6 121       
PG25 -18234.126053 -19272.199417   2217.750669     13.862163  6  6  4 108       
PG26  12676.349010 -22963.776628   2217.392391    169.100691  3  3  5 103       
PG27 -12613.700299  22571.509853   5985.592318    -18.196110  6  5  5  89       
PG28  19323.808118   9244.291941 -15188.836097    331.452419  8  6  5 108       
PG29  -8293.490363 -15539.880545  19937.606111    509.905074  6  5  5 113       
PG30 -16428.846405   1797.199499  20686.004001 999999.999999
PG31 -24898.596686   7734.650637   6043.596968    333.120849  7  8  6 105       
PG32   1324.778901  21565.319408 -15723.871159   -487.988904  5  4  4  92       
EOF
